{"type": "FeatureCollection", "features": [ {"type": "Feature", "properties": {"norad_id": 67091, "name": "STARLINK-36097", "group": "last-30-days", "lat": 27.751741388638372, "lon": 20.159948788440577, "alt_km": 339.95559593288453, "timestamp": "2025-12-26T08:37:53.294753+00:00", "meta": {"OBJECT_NAME": "STARLINK-36097", "OBJECT_ID": "2025-298S", "EPOCH": "2025-12-26T04:00:01.998720", "MEAN_MOTION": 15.77257397, "ECCENTRICITY": 0.00036, "INCLINATION": 69.9966, "RA_OF_ASC_NODE": 211.7589, "ARG_OF_PERICENTER": 273.6624, "MEAN_ANOMALY": 221.5432, "EPHEMERIS_TYPE": 0, "CLASSIFICATION_TYPE": "U", "NORAD_CAT_ID": 67091, "ELEMENT_SET_NO": 999, "REV_AT_EPOCH": 313, "BSTAR": -0.012226, "MEAN_MOTION_DOT": -0.01773048, "MEAN_MOTION_DDOT": 0}, "tle": {"line1": "1 67091U 25298S   25360.16668980 -.01773048  00000+0 -12226-1 0  9994", "line2": "2 67091  69.9966 211.7589 0003600 273.6624 221.5432 15.77257397  3131"}}, "geometry": {"type": "Point", "coordinates": [20.159948788440577, 27.751741388638372]}}, {"type": "Feature", "properties": {"norad_id": 67092, "name": "STARLINK-35792", "group": "last-30-days", "lat": 26.0206684405934, "lon": 20.963435049053892, "alt_km": 340.24690154363907, "timestamp": "2025-12-26T08:37:53.294764+00:00", "meta": {"OBJECT_NAME": "STARLINK-35792", "OBJECT_ID": "2025-298T", "EPOCH": "2025-12-26T04:00:01.998720", "MEAN_MOTION": 15.77255553, "ECCENTRICITY": 0.0003553, "INCLINATION": 69.9963, "RA_OF_ASC_NODE": 211.7558, "ARG_OF_PERICENTER": 276.27, "MEAN_ANOMALY": 220.8077, "EPHEMERIS_TYPE": 0, "CLASSIFICATION_TYPE": "U", "NORAD_CAT_ID": 67092, "ELEMENT_SET_NO": 999, "REV_AT_EPOCH": 307, "BSTAR": -0.012187, "MEAN_MOTION_DOT": -0.01767937, "MEAN_MOTION_DDOT": 0}, "tle": {"line1": "1 67092U 25298T   25360.16668980 -.01767937  00000+0 -12187-1 0  9991", "line2": "2 67092  69.9963 211.7558 0003553 276.2700 220.8077 15.77255553  3078"}}, "geometry": {"type": "Point", "coordinates": [20.963435049053892, 26.0206684405934]}}, {"type": "Feature", "properties": {"norad_id": 67093, "name": "STARLINK-35784", "group": "last-30-days", "lat": 24.194583835459802, "lon": 21.78448441617751, "alt_km": 340.39232734614325, "timestamp": "2025-12-26T08:37:53.294778+00:00", "meta": {"OBJECT_NAME": "STARLINK-35784", "OBJECT_ID": "2025-298U", "EPOCH": "2025-12-26T04:00:01.998720", "MEAN_MOTION": 15.77258586, "ECCENTRICITY": 0.0003565, "INCLINATION": 69.9961, "RA_OF_ASC_NODE": 211.7534, "ARG_OF_PERICENTER": 273.8424, "MEAN_ANOMALY": 225.2064, "EPHEMERIS_TYPE": 0, "CLASSIFICATION_TYPE": "U", "NORAD_CAT_ID": 67093, "ELEMENT_SET_NO": 999, "REV_AT_EPOCH": 313, "BSTAR": -0.012238, "MEAN_MOTION_DOT": -0.01774739, "MEAN_MOTION_DDOT": 0}, "tle": {"line1": "1 67093U 25298U   25360.16668980 -.01774739  00000+0 -12238-1 0  9997", "line2": "2 67093  69.9961 211.7534 0003565 273.8424 225.2064 15.77258586  3131"}}, "geometry": {"type": "Point", "coordinates": [21.78448441617751, 24.194583835459802]}}, {"type": "Feature", "properties": {"norad_id": 67094, "name": "STARLINK-36202", "group": "last-30-days", "lat": 22.22318102337664, "lon": 22.643565403527813, "alt_km": 340.8212516370768, "timestamp": "2025-12-26T08:37:53.294788+00:00", "meta": {"OBJECT_NAME": "STARLINK-36202", "OBJECT_ID": "2025-298V", "EPOCH": "2025-12-26T04:00:01.998720", "MEAN_MOTION": 15.77245249, "ECCENTRICITY": 0.0003634, "INCLINATION": 69.9963, "RA_OF_ASC_NODE": 211.7514, "ARG_OF_PERICENTER": 277.3706, "MEAN_ANOMALY": 223.8089, "EPHEMERIS_TYPE": 0, "CLASSIFICATION_TYPE": "U", "NORAD_CAT_ID": 67094, "ELEMENT_SET_NO": 999, "REV_AT_EPOCH": 313, "BSTAR": -0.012206, "MEAN_MOTION_DOT": -0.01769705, "MEAN_MOTION_DDOT": 0}, "tle": {"line1": "1 67094U 25298V   25360.16668980 -.01769705  00000+0 -12206-1 0  9990", "line2": "2 67094  69.9963 211.7514 0003634 277.3706 223.8089 15.77245249  3134"}}, "geometry": {"type": "Point", "coordinates": [22.643565403527813, 22.22318102337664]}}, {"type": "Feature", "properties": {"norad_id": 67095, "name": "STARLINK-36227", "group": "last-30-days", "lat": 20.337234868318436, "lon": 23.439935442878177, "alt_km": 341.05706054400343, "timestamp": "2025-12-26T08:37:53.294799+00:00", "meta": {"OBJECT_NAME": "STARLINK-36227", "OBJECT_ID": "2025-298W", "EPOCH": "2025-12-26T04:00:01.998720", "MEAN_MOTION": 15.77241278, "ECCENTRICITY": 0.0003581, "INCLINATION": 69.996, "RA_OF_ASC_NODE": 211.7484, "ARG_OF_PERICENTER": 277.707, "MEAN_ANOMALY": 225.501, "EPHEMERIS_TYPE": 0, "CLASSIFICATION_TYPE": "U", "NORAD_CAT_ID": 67095, "ELEMENT_SET_NO": 999, "REV_AT_EPOCH": 307, "BSTAR": -0.012206, "MEAN_MOTION_DOT": -0.01769353, "MEAN_MOTION_DDOT": 0}, "tle": {"line1": "1 67095U 25298W   25360.16668980 -.01769353  00000+0 -12206-1 0  9990", "line2": "2 67095  69.9960 211.7484 0003581 277.7070 225.5010 15.77241278  3071"}}, "geometry": {"type": "Point", "coordinates": [23.439935442878177, 20.337234868318436]}}, {"type": "Feature", "properties": {"norad_id": 67096, "name": "STARLINK-36228", "group": "last-30-days", "lat": 18.63031386862741, "lon": 24.144202821634106, "alt_km": 341.205196043431, "timestamp": "2025-12-26T08:37:53.294808+00:00", "meta": {"OBJECT_NAME": "STARLINK-36228", "OBJECT_ID": "2025-298X", "EPOCH": "2025-12-26T04:00:01.998720", "MEAN_MOTION": 15.77244655, "ECCENTRICITY": 0.0003428, "INCLINATION": 69.9965, "RA_OF_ASC_NODE": 211.7468, "ARG_OF_PERICENTER": 277.6755, "MEAN_ANOMALY": 227.3597, "EPHEMERIS_TYPE": 0, "CLASSIFICATION_TYPE": "U", "NORAD_CAT_ID": 67096, "ELEMENT_SET_NO": 999, "REV_AT_EPOCH": 307, "BSTAR": -0.01221, "MEAN_MOTION_DOT": -0.01769946, "MEAN_MOTION_DDOT": 0}, "tle": {"line1": "1 67096U 25298X   25360.16668980 -.01769946  00000+0 -12210-1 0  9994", "line2": "2 67096  69.9965 211.7468 0003428 277.6755 227.3597 15.77244655  3070"}}, "geometry": {"type": "Point", "coordinates": [24.144202821634106, 18.63031386862741]}}, {"type": "Feature", "properties": {"norad_id": 67097, "name": "STARLINK-36222", "group": "last-30-days", "lat": 16.77597876186336, "lon": 24.891134675828283, "alt_km": 341.3402134640992, "timestamp": "2025-12-26T08:37:53.294821+00:00", "meta": {"OBJECT_NAME": "STARLINK-36222", "OBJECT_ID": "2025-298Y", "EPOCH": "2025-12-26T04:00:01.998720", "MEAN_MOTION": 15.77247672, "ECCENTRICITY": 0.0003533, "INCLINATION": 69.9959, "RA_OF_ASC_NODE": 211.7444, "ARG_OF_PERICENTER": 274.5472, "MEAN_ANOMALY": 232.4751, "EPHEMERIS_TYPE": 0, "CLASSIFICATION_TYPE": "U", "NORAD_CAT_ID": 67097, "ELEMENT_SET_NO": 999, "REV_AT_EPOCH": 307, "BSTAR": -0.012269, "MEAN_MOTION_DOT": -0.01777827, "MEAN_MOTION_DDOT": 0}, "tle": {"line1": "1 67097U 25298Y   25360.16668980 -.01777827  00000+0 -12269-1 0  9996", "line2": "2 67097  69.9959 211.7444 0003533 274.5472 232.4751 15.77247672  3078"}}, "geometry": {"type": "Point", "coordinates": [24.891134675828283, 16.77597876186336]}}, {"type": "Feature", "properties": {"norad_id": 67098, "name": "STARLINK-36205", "group": "last-30-days", "lat": 14.794784891904634, "lon": 25.671945681291035, "alt_km": 341.62103384050806, "timestamp": "2025-12-26T08:37:53.294831+00:00", "meta": {"OBJECT_NAME": "STARLINK-36205", "OBJECT_ID": "2025-298Z", "EPOCH": "2025-12-26T04:00:01.998720", "MEAN_MOTION": 15.77238675, "ECCENTRICITY": 0.0003619, "INCLINATION": 69.9964, "RA_OF_ASC_NODE": 211.7413, "ARG_OF_PERICENTER": 274.6713, "MEAN_ANOMALY": 234.4771, "EPHEMERIS_TYPE": 0, "CLASSIFICATION_TYPE": "U", "NORAD_CAT_ID": 67098, "ELEMENT_SET_NO": 999, "REV_AT_EPOCH": 313, "BSTAR": -0.01228, "MEAN_MOTION_DOT": -0.01778702, "MEAN_MOTION_DDOT": 0}, "tle": {"line1": "1 67098U 25298Z   25360.16668980 -.01778702  00000+0 -12280-1 0  9993", "line2": "2 67098  69.9964 211.7413 0003619 274.6713 234.4771 15.77238675  3139"}}, "geometry": {"type": "Point", "coordinates": [25.671945681291035, 14.794784891904634]}}, {"type": "Feature", "properties": {"norad_id": 67099, "name": "STARLINK-36193", "group": "last-30-days", "lat": 23.84628705266348, "lon": 21.939453513184933, "alt_km": 349.8675943881417, "timestamp": "2025-12-26T08:37:53.294841+00:00", "meta": {"OBJECT_NAME": "STARLINK-36193", "OBJECT_ID": "2025-298AA", "EPOCH": "2025-12-26T04:00:01.998720", "MEAN_MOTION": 15.7424393, "ECCENTRICITY": 0.0003392, "INCLINATION": 69.9973, "RA_OF_ASC_NODE": 211.751, "ARG_OF_PERICENTER": 274.6722, "MEAN_ANOMALY": 226.9538, "EPHEMERIS_TYPE": 0, "CLASSIFICATION_TYPE": "U", "NORAD_CAT_ID": 67099, "ELEMENT_SET_NO": 999, "REV_AT_EPOCH": 307, "BSTAR": -0.019859, "MEAN_MOTION_DOT": -0.02456993, "MEAN_MOTION_DDOT": 0}, "tle": {"line1": "1 67099U 25298AA  25360.16668980 -.02456993  00000+0 -19859-1 0  9999", "line2": "2 67099  69.9973 211.7510 0003392 274.6722 226.9538 15.74243930  3073"}}, "geometry": {"type": "Point", "coordinates": [21.939453513184933, 23.84628705266348]}}, {"type": "Feature", "properties": {"norad_id": 67100, "name": "STARLINK-36215", "group": "last-30-days", "lat": 9.63397259702033, "lon": 27.641931124322078, "alt_km": 342.20262311538136, "timestamp": "2025-12-26T08:37:53.294853+00:00", "meta": {"OBJECT_NAME": "STARLINK-36215", "OBJECT_ID": "2025-298AB", "EPOCH": "2025-12-26T04:00:01.998720", "MEAN_MOTION": 15.77248758, "ECCENTRICITY": 0.0003557, "INCLINATION": 69.9958, "RA_OF_ASC_NODE": 211.7354, "ARG_OF_PERICENTER": 276.1295, "MEAN_ANOMALY": 238.5181, "EPHEMERIS_TYPE": 0, "CLASSIFICATION_TYPE": "U", "NORAD_CAT_ID": 67100, "ELEMENT_SET_NO": 999, "REV_AT_EPOCH": 313, "BSTAR": -0.012259, "MEAN_MOTION_DOT": -0.01776727, "MEAN_MOTION_DDOT": 0}, "tle": {"line1": "1 67100U 25298AB  25360.16668980 -.01776727  00000+0 -12259-1 0  9998", "line2": "2 67100  69.9958 211.7354 0003557 276.1295 238.5181 15.77248758  3136"}}, "geometry": {"type": "Point", "coordinates": [27.641931124322078, 9.63397259702033]}}]}